start=new Date('2022-07-11T00:00:00.000Z').valueOf();
sats=[{"OBJECT_NAME":"STARLINK-1543","GP_ID":"207872628","MEAN_ELEMENT_THEORY":"SGP4","MEAN_ANOMALY":"252.8266","MEAN_MOTION":"15.06383740","RA_OF_ASC_NODE":"2.9220","OBJECT_TYPE":"PAYLOAD","OBJECT_ID":"2020-055AC","RCS_SIZE":"LARGE","LAUNCH_DATE":"2020-08-07","REF_FRAME":"TEME","ELEMENT_SET_NO":"999","CENTER_NAME":"EARTH","PERIOD":"95.593","SEMIMAJOR_AXIS":"6925.398","TIME_SYSTEM":"UTC","INCLINATION":"53.0568","COUNTRY_CODE":"US","REV_AT_EPOCH":"10685","FILE":"3511318","TLE_LINE2":"2 46053  53.0568   2.9220 0000805 107.2811 252.8266 15.06383740106853","SITE":"AFETR","MEAN_MOTION_DDOT":"0.0000000000000","DECAY_DATE":null,"NORAD_CAT_ID":"46053","TLE_LINE1":"1 46053U 20055AC  22191.73757634  .00015538  00000-0  10602-2 0  9990","EPOCH":"2022-07-10T17:42:06.595776","CLASSIFICATION_TYPE":"U","BSTAR":"0.00106020000000","ARG_OF_PERICENTER":"107.2811","EPHEMERIS_TYPE":"0","MEAN_MOTION_DOT":"0.00015538","APOAPSIS":"547.821","PERIAPSIS":"546.706","ECCENTRICITY":"0.00008050"},{"TLE_LINE2":"2 46054  53.0569   2.8936 0001302  91.5658 268.5480 15.06385043106833","FILE":"3511318","REV_AT_EPOCH":"10683","COUNTRY_CODE":"US","INCLINATION":"53.0569","TIME_SYSTEM":"UTC","PERIOD":"95.593","SEMIMAJOR_AXIS":"6925.394","CENTER_NAME":"EARTH","ELEMENT_SET_NO":"999","REF_FRAME":"TEME","RCS_SIZE":"LARGE","LAUNCH_DATE":"2020-08-07","OBJECT_TYPE":"PAYLOAD","OBJECT_ID":"2020-055AD","RA_OF_ASC_NODE":"2.8936","MEAN_MOTION":"15.06385043","MEAN_ANOMALY":"268.5480","MEAN_ELEMENT_THEORY":"SGP4","GP_ID":"207871382","OBJECT_NAME":"STARLINK-1548","ECCENTRICITY":"0.00013020","PERIAPSIS":"546.358","APOAPSIS":"548.161","MEAN_MOTION_DOT":"-0.00000107","ARG_OF_PERICENTER":"91.5658","EPHEMERIS_TYPE":"0","CLASSIFICATION_TYPE":"U","BSTAR":"0.00001172500000","EPOCH":"2022-07-10T17:52:42.890304","TLE_LINE1":"1 46054U 20055AD  22191.74494086 -.00000107  00000-0  11725-4 0  9997","NORAD_CAT_ID":"46054","DECAY_DATE":null,"MEAN_MOTION_DDOT":"0.0000000000000","SITE":"AFETR"},{"MEAN_MOTION_DDOT":"0.0000000000000","SITE":"AFETR","NORAD_CAT_ID":"46055","TLE_LINE1":"1 46055U 20055AE  22191.79652315  .00011758  00000-0  80662-3 0  9992","DECAY_DATE":null,"EPOCH":"2022-07-10T19:06:59.600160","ARG_OF_PERICENTER":"80.5380","EPHEMERIS_TYPE":"0","BSTAR":"0.00080662000000","CLASSIFICATION_TYPE":"U","MEAN_MOTION_DOT":"0.00011758","APOAPSIS":"547.997","ECCENTRICITY":"0.00011940","PERIAPSIS":"546.344","GP_ID":"207871632","OBJECT_NAME":"STARLINK-1554","MEAN_ELEMENT_THEORY":"SGP4","MEAN_ANOMALY":"279.5744","MEAN_MOTION":"15.06414062","RA_OF_ASC_NODE":"2.6573","RCS_SIZE":"LARGE","LAUNCH_DATE":"2020-08-07","OBJECT_ID":"2020-055AE","OBJECT_TYPE":"PAYLOAD","ELEMENT_SET_NO":"999","CENTER_NAME":"EARTH","PERIOD":"95.591","SEMIMAJOR_AXIS":"6925.305","REF_FRAME":"TEME","TIME_SYSTEM":"UTC","COUNTRY_CODE":"US","INCLINATION":"53.0533","TLE_LINE2":"2 46055  53.0533   2.6573 0001194  80.5380 279.5744 15.06414062107389","REV_AT_EPOCH":"10738","FILE":"3511318"},{"RA_OF_ASC_NODE":"2.8486","MEAN_MOTION":"15.06385353","MEAN_ANOMALY":"297.2583","MEAN_ELEMENT_THEORY":"SGP4","OBJECT_NAME":"STARLINK-1561","GP_ID":"207849886","FILE":"3511185","REV_AT_EPOCH":"10684","TLE_LINE2":"2 46056  53.0567   2.8486 0001444  62.8553 297.2583 15.06385353106843","INCLINATION":"53.0567","COUNTRY_CODE":"US","TIME_SYSTEM":"UTC","REF_FRAME":"TEME","PERIOD":"95.593","CENTER_NAME":"EARTH","SEMIMAJOR_AXIS":"6925.393","ELEMENT_SET_NO":"999","OBJECT_ID":"2020-055AF","OBJECT_TYPE":"PAYLOAD","RCS_SIZE":"LARGE","LAUNCH_DATE":"2020-08-07","BSTAR":"-0.00006581700000","CLASSIFICATION_TYPE":"U","ARG_OF_PERICENTER":"62.8553","EPHEMERIS_TYPE":"0","EPOCH":"2022-07-10T18:01:57.465984","DECAY_DATE":null,"TLE_LINE1":"1 46056U 20055AF  22191.75135956 -.00001261  00000-0 -65817-4 0  9992","NORAD_CAT_ID":"46056","MEAN_MOTION_DDOT":"0.0000000000000","SITE":"AFETR","PERIAPSIS":"546.258","ECCENTRICITY":"0.00014440","APOAPSIS":"548.258","MEAN_MOTION_DOT":"-0.00001261"},{"EPOCH":"2022-07-10T18:19:14.338560","BSTAR":"-0.00021339000000","CLASSIFICATION_TYPE":"U","ARG_OF_PERICENTER":"92.4269","EPHEMERIS_TYPE":"0","SITE":"AFETR","MEAN_MOTION_DDOT":"0.0000000000000","DECAY_DATE":null,"TLE_LINE1":"1 46058U 20055AH  22191.76336040 -.00003458  00000-0 -21339-3 0  9992","NORAD_CAT_ID":"46058","PERIAPSIS":"546.152","ECCENTRICITY":"0.00015700","MEAN_MOTION_DOT":"-0.00003458","APOAPSIS":"548.326","RA_OF_ASC_NODE":"2.7971","MEAN_MOTION":"15.06391679","OBJECT_NAME":"STARLINK-1564","GP_ID":"207873128","MEAN_ELEMENT_THEORY":"SGP4","MEAN_ANOMALY":"267.6900","COUNTRY_CODE":"US","INCLINATION":"53.0563","TIME_SYSTEM":"UTC","FILE":"3511318","REV_AT_EPOCH":"10737","TLE_LINE2":"2 46058  53.0563   2.7971 0001570  92.4269 267.6900 15.06391679107373","OBJECT_ID":"2020-055AH","OBJECT_TYPE":"PAYLOAD","LAUNCH_DATE":"2020-08-07","RCS_SIZE":"LARGE","REF_FRAME":"TEME","SEMIMAJOR_AXIS":"6925.374","PERIOD":"95.593","CENTER_NAME":"EARTH","ELEMENT_SET_NO":"999"},{"REV_AT_EPOCH":"10733","FILE":"3511318","TLE_LINE2":"2 46059  53.0567   2.7778 0001274  84.7789 275.3345 15.06383766107338","TIME_SYSTEM":"UTC","COUNTRY_CODE":"US","INCLINATION":"53.0567","REF_FRAME":"TEME","ELEMENT_SET_NO":"999","PERIOD":"95.593","SEMIMAJOR_AXIS":"6925.398","CENTER_NAME":"EARTH","OBJECT_ID":"2020-055AJ","OBJECT_TYPE":"PAYLOAD","LAUNCH_DATE":"2020-08-07","RCS_SIZE":"LARGE","MEAN_MOTION":"15.06383766","RA_OF_ASC_NODE":"2.7778","MEAN_ELEMENT_THEORY":"SGP4","MEAN_ANOMALY":"275.3345","OBJECT_NAME":"STARLINK-1570","GP_ID":"207871883","PERIAPSIS":"546.381","ECCENTRICITY":"0.00012740","APOAPSIS":"548.146","MEAN_MOTION_DOT":"-0.00002963","BSTAR":"-0.00018019000000","CLASSIFICATION_TYPE":"U","ARG_OF_PERICENTER":"84.7789","EPHEMERIS_TYPE":"0","EPOCH":"2022-07-10T18:29:51.038304","DECAY_DATE":null,"NORAD_CAT_ID":"46059","TLE_LINE1":"1 46059U 20055AJ  22191.77072961 -.00002963  00000-0 -18019-3 0  9994","MEAN_MOTION_DDOT":"0.0000000000000","SITE":"AFETR"},{"ECCENTRICITY":"0.00014590","PERIAPSIS":"546.233","APOAPSIS":"548.254","MEAN_MOTION_DOT":"0.00008592","EPHEMERIS_TYPE":"0","ARG_OF_PERICENTER":"80.4169","BSTAR":"0.00059512000000","CLASSIFICATION_TYPE":"U","EPOCH":"2022-07-10T20:00:04.531392","TLE_LINE1":"1 46060U 20055AK  22191.83338578  .00008592  00000-0  59512-3 0  9997","NORAD_CAT_ID":"46060","DECAY_DATE":null,"MEAN_MOTION_DDOT":"0.0000000000000","SITE":"AFETR","TLE_LINE2":"2 46060  53.0555   2.4935 0001459  80.4169 279.6985 15.06390251106859","FILE":"3511187","REV_AT_EPOCH":"10685","INCLINATION":"53.0555","COUNTRY_CODE":"US","TIME_SYSTEM":"UTC","CENTER_NAME":"EARTH","PERIOD":"95.593","SEMIMAJOR_AXIS":"6925.378","ELEMENT_SET_NO":"999","REF_FRAME":"TEME","RCS_SIZE":"LARGE","LAUNCH_DATE":"2020-08-07","OBJECT_ID":"2020-055AK","OBJECT_TYPE":"PAYLOAD","RA_OF_ASC_NODE":"2.4935","MEAN_MOTION":"15.06390251","MEAN_ANOMALY":"279.6985","MEAN_ELEMENT_THEORY":"SGP4","GP_ID":"207849489","OBJECT_NAME":"STARLINK-1572"},{"OBJECT_TYPE":"PAYLOAD","OBJECT_ID":"2020-055AL","LAUNCH_DATE":"2020-08-07","RCS_SIZE":"LARGE","REF_FRAME":"TEME","ELEMENT_SET_NO":"999","CENTER_NAME":"EARTH","PERIOD":"95.593","SEMIMAJOR_AXIS":"6925.372","TIME_SYSTEM":"UTC","INCLINATION":"53.0550","COUNTRY_CODE":"US","REV_AT_EPOCH":"10738","FILE":"3511318","TLE_LINE2":"2 46061  53.0550   2.5306 0001521  72.2172 287.8983 15.06392251107381","OBJECT_NAME":"STARLINK-1573","GP_ID":"207872884","MEAN_ELEMENT_THEORY":"SGP4","MEAN_ANOMALY":"287.8983","MEAN_MOTION":"15.06392251","RA_OF_ASC_NODE":"2.5306","MEAN_MOTION_DOT":"-0.00001045","APOAPSIS":"548.291","PERIAPSIS":"546.184","ECCENTRICITY":"0.00015210","MEAN_MOTION_DDOT":"0.0000000000000","SITE":"AFETR","DECAY_DATE":null,"NORAD_CAT_ID":"46061","TLE_LINE1":"1 46061U 20055AL  22191.82601577 -.00001045  00000-0 -51273-4 0  9994","EPOCH":"2022-07-10T19:49:27.762528","BSTAR":"-0.00005127300000","CLASSIFICATION_TYPE":"U","EPHEMERIS_TYPE":"0","ARG_OF_PERICENTER":"72.2172"},{"MEAN_MOTION_DDOT":"0.0000000000000","SITE":"AFETR","TLE_LINE1":"1 46062U 20055AM  22191.85918506 -.00002367  00000-0 -14010-3 0  9996","NORAD_CAT_ID":"46062","DECAY_DATE":null,"EPOCH":"2022-07-10T20:37:13.589184","ARG_OF_PERICENTER":"69.1313","EPHEMERIS_TYPE":"0","BSTAR":"-0.00014010000000","CLASSIFICATION_TYPE":"U","MEAN_MOTION_DOT":"-0.00002367","APOAPSIS":"548.358","ECCENTRICITY":"0.00016260","PERIAPSIS":"546.106","GP_ID":"207872629","OBJECT_NAME":"STARLINK-1574","MEAN_ELEMENT_THEORY":"SGP4","MEAN_ANOMALY":"290.9850","RA_OF_ASC_NODE":"2.3689","MEAN_MOTION":"15.06393982","LAUNCH_DATE":"2020-08-07","RCS_SIZE":"LARGE","OBJECT_ID":"2020-055AM","OBJECT_TYPE":"PAYLOAD","PERIOD":"95.593","CENTER_NAME":"EARTH","SEMIMAJOR_AXIS":"6925.367","ELEMENT_SET_NO":"999","REF_FRAME":"TEME","COUNTRY_CODE":"US","INCLINATION":"53.0553","TIME_SYSTEM":"UTC","TLE_LINE2":"2 46062  53.0553   2.3689 0001626  69.1313 290.9850 15.06393982107352","FILE":"3511318","REV_AT_EPOCH":"10735"},{"MEAN_MOTION_DDOT":"0.0000000000000","SITE":"AFETR","TLE_LINE1":"1 46063U 20055AN  22191.85550675  .00000971  00000-0  84072-4 0  9999","NORAD_CAT_ID":"46063","DECAY_DATE":null,"EPOCH":"2022-07-10T20:31:55.783200","ARG_OF_PERICENTER":"99.7223","EPHEMERIS_TYPE":"0","BSTAR":"0.00008407200000","CLASSIFICATION_TYPE":"U","MEAN_MOTION_DOT":"0.00000971","APOAPSIS":"548.178","ECCENTRICITY":"0.00013430","PERIAPSIS":"546.317","GP_ID":"207871383","OBJECT_NAME":"STARLINK-1577","MEAN_ANOMALY":"260.3918","MEAN_ELEMENT_THEORY":"SGP4","RA_OF_ASC_NODE":"2.4030","MEAN_MOTION":"15.06388935","RCS_SIZE":"LARGE","LAUNCH_DATE":"2020-08-07","OBJECT_ID":"2020-055AN","OBJECT_TYPE":"PAYLOAD","SEMIMAJOR_AXIS":"6925.382","PERIOD":"95.593","CENTER_NAME":"EARTH","ELEMENT_SET_NO":"999","REF_FRAME":"TEME","COUNTRY_CODE":"US","INCLINATION":"53.0539","TIME_SYSTEM":"UTC","TLE_LINE2":"2 46063  53.0539   2.4030 0001343  99.7223 260.3918 15.06388935107384","FILE":"3511318","REV_AT_EPOCH":"10738"}];
